OBJECT_NAME,OBJECT_ID,EPOCH,MEAN_MOTION,ECCENTRICITY,INCLINATION,RA_OF_ASC_NODE,ARG_OF_PERICENTER,MEAN_ANOMALY,EPHEMERIS_TYPE,CLASSIFICATION_TYPE,NORAD_CAT_ID,ELEMENT_SET_NO,REV_AT_EPOCH,BSTAR,MEAN_MOTION_DOT,MEAN_MOTION_DDOT
STARLINK-37799,2026-119X,2026-06-08T06:00:04.000320,15.80757847,.00013571,97.2834,184.6126,107.5721,151.5674,0,U,69317,999,256,.82927596E-3,.161244E-2,0
STARLINK-37802,2026-119Y,2026-06-08T06:00:04.000320,15.80974052,.00012577,97.2833,184.6169,106.0090,164.5882,0,U,69318,999,261,-.16651293E-2,-.31027E-2,0
STARLINK-37803,2026-119Z,2026-06-08T06:00:04.000320,15.81113144,.00011901,97.2836,184.6194,82.0988,192.1502,0,U,69319,999,256,-.24214539E-2,-.447065E-2,0
GUOWANG TEST OBJECT A,2026-120A,2026-06-07T11:06:12.288672,15.38803685,.00095994,54.9967,71.5399,294.3963,65.6063,0,U,69320,999,119,.24095813E-3,.9002E-4,0
GUOWANG TEST OBJECT B,2026-120B,2026-06-04T06:41:24.658368,15.39121370,.00091004,55.0006,85.8667,296.4175,63.5919,0,U,69321,999,70,.6938966E-3,.27005E-3,0
GUOWANG TEST OBJECT C,2026-120C,2026-06-07T00:06:59.203296,15.39521743,.00095552,54.9981,73.5721,307.3825,52.6333,0,U,69322,999,112,.45417396E-3,.17755E-3,0
GUOWANG TEST OBJECT D,2026-120D,2026-06-04T15:59:40.712352,15.39704502,.00080029,55.0029,84.1123,301.7889,58.2360,0,U,69323,999,76,.80800046E-3,.32137E-3,0
QIANFAN-163,2026-121A,2026-06-07T22:57:09.254304,13.60351230,.00191963,89.0166,301.4497,214.2828,145.7091,0,U,69325,999,90,.26503553E-4,.32E-6,0
QIANFAN-164,2026-121B,2026-06-08T07:45:37.541088,13.60504582,.00186148,89.0162,301.4118,214.4374,145.5577,0,U,69326,999,95,.1618414E-3,.134E-5,0
SZ-22 MODULE,2025-272C,2026-06-07T21:26:14.951904,15.59849035,.00077105,41.4812,18.5944,10.7698,349.3304,0,U,69328,999,187,.26543469E-3,.21699E-3,0
